ORBCOMM FM24            
1 25478U 98053D   25354.59004924  .00000726  00000+0  28087-3 0  9995
2 25478  45.0071 104.9243 0001889 133.6469 226.4536 14.38671966424285
ORBCOMM FM25            
1 25479U 98053E   25354.49582419  .00000761  00000+0  29230-3 0  9995
2 25479  45.0064 103.6712 0004234 121.3630 238.7633 14.38639608424568
ORBCOMM FM26            
1 25480U 98053F   25354.00874061  .00000628  00000+0  25419-3 0  9998
2 25480  45.0061 103.8324 0006321 128.8766 231.2647 14.37610007424383
ORBCOMM FM27            
1 25481U 98053G   25354.61814856  .00000831  00000+0  31472-3 0  9994
2 25481  45.0049 103.2217 0001606 183.7990 176.2847 14.38674889424519
ORBCOMM FM28            
1 25482U 98053H   25354.56549010  .00000633  00000+0  25002-3 0  9998
2 25482  45.0062  40.7423 0004782 182.8381 177.2441 14.38802944425192
ORBCOMM FM30            
1 25980U 99065A   25354.18587560  .00000559  00000+0  23067-3 0  9991
2 25980  45.0321 289.0298 0006320 237.4047 122.6192 14.37778304361217
ORBCOMM FM31            
1 25981U 99065B   25354.16787211  .00000646  00000+0  25973-3 0  9990
2 25981  45.0231 282.5674 0004538 268.9368  91.0960 14.37706334360763
ORBCOMM FM32            
1 25982U 99065C   25354.19807918  .00000604  00000+0  25042-3 0  9992
2 25982  45.0165 300.2459 0006943 257.5418 102.4654 14.36763379361344
